{
  "type": "FeatureCollection",
  "features": [
    {
      "type": "Feature",
      "properties": {
        "norad_id": 34056,
        "name": "COSMOS 2251 DEB",
        "group": "cosmos-2251-debris",
        "lat": -65.65381035970252,
        "lon": -83.52678107548752,
        "alt_km": 906.3187166982098,
        "timestamp": "2025-12-23T09:49:07.476592+00:00",
        "meta_object_name": "COSMOS 2251 DEB",
        "meta_object_id": "1993-036JT",
        "meta_epoch": "2025-12-22T21:21:15.255360",
        "meta_mean_motion": 14.20590307,
        "meta_eccentricity": 0.01237441,
        "meta_inclination": 74.0583,
        "meta_ra_of_asc_node": 58.2276,
        "meta_arg_of_pericenter": 103.3931,
        "meta_mean_anomaly": 12.2025,
        "meta_ephemeris_type": 0,
        "meta_classification_type": "U",
        "meta_norad_cat_id": 34056,
        "meta_element_set_no": 999,
        "meta_rev_at_epoch": 86555,
        "meta_bstar": 0.00068039045,
        "meta_mean_motion_dot": 1.557e-05,
        "meta_mean_motion_ddot": 0,
        "tle_line1": "1 34056U 93036JT  25356.88975990  .00001557  00000+0  68039-3 0  9991",
        "tle_line2": "2 34056  74.0583  58.2276 0123744 103.3931  12.2025 14.20590307865550"
      },
      "geometry": {
        "type": "Point",
        "coordinates": [
          -83.52678107548752,
          -65.65381035970252
        ]
      }
    },
    {
      "type": "Feature",
      "properties": {
        "norad_id": 34058,
        "name": "COSMOS 2251 DEB",
        "group": "cosmos-2251-debris",
        "lat": 72.4160202066206,
        "lon": -133.7527151645563,
        "alt_km": 943.0001528776847,
        "timestamp": "2025-12-23T09:49:07.476602+00:00",
        "meta_object_name": "COSMOS 2251 DEB",
        "meta_object_id": "1993-036JV",
        "meta_epoch": "2025-12-22T14:19:49.139328",
        "meta_mean_motion": 13.56090879,
        "meta_eccentricity": 0.03775161,
        "meta_inclination": 73.9315,
        "meta_ra_of_asc_node": 162.1346,
        "meta_arg_of_pericenter": 155.4967,
        "meta_mean_anomaly": 288.6141,
        "meta_ephemeris_type": 0,
        "meta_classification_type": "U",
        "meta_norad_cat_id": 34058,
        "meta_element_set_no": 999,
        "meta_rev_at_epoch": 83276,
        "meta_bstar": 0.00064974431,
        "meta_mean_motion_dot": 7.01e-06,
        "meta_mean_motion_ddot": 0,
        "tle_line1": "1 34058U 93036JV  25356.59709652  .00000701  00000+0  64974-3 0  9995",
        "tle_line2": "2 34058  73.9315 162.1346 0377516 155.4967 288.6141 13.56090879832763"
      },
      "geometry": {
        "type": "Point",
        "coordinates": [
          -133.7527151645563,
          72.4160202066206
        ]
      }
    },
    {
      "type": "Feature",
      "properties": {
        "norad_id": 34059,
        "name": "COSMOS 2251 DEB",
        "group": "cosmos-2251-debris",
        "lat": 61.12137553628768,
        "lon": -162.58841028947103,
        "alt_km": 722.5956228331825,
        "timestamp": "2025-12-23T09:49:07.476613+00:00",
        "meta_object_name": "COSMOS 2251 DEB",
        "meta_object_id": "1993-036JW",
        "meta_epoch": "2025-12-22T22:30:14.542848",
        "meta_mean_motion": 14.53004954,
        "meta_eccentricity": 0.00184255,
        "meta_inclination": 74.0369,
        "meta_ra_of_asc_node": 167.0373,
        "meta_arg_of_pericenter": 243.3456,
        "meta_mean_anomaly": 237.2844,
        "meta_ephemeris_type": 0,
        "meta_classification_type": "U",
        "meta_norad_cat_id": 34059,
        "meta_element_set_no": 999,
        "meta_rev_at_epoch": 88607,
        "meta_bstar": 0.00082431886,
        "meta_mean_motion_dot": 3.383e-05,
        "meta_mean_motion_ddot": 0,
        "tle_line1": "1 34059U 93036JW  25356.93766832  .00003383  00000+0  82432-3 0  9995",
        "tle_line2": "2 34059  74.0369 167.0373 0018425 243.3456 237.2844 14.53004954886070"
      },
      "geometry": {
        "type": "Point",
        "coordinates": [
          -162.58841028947103,
          61.12137553628768
        ]
      }
    },
    {
      "type": "Feature",
      "properties": {
        "norad_id": 34061,
        "name": "COSMOS 2251 DEB",
        "group": "cosmos-2251-debris",
        "lat": -65.63300846548731,
        "lon": -155.52163888224428,
        "alt_km": 751.2733201284018,
        "timestamp": "2025-12-23T09:49:07.476623+00:00",
        "meta_object_name": "COSMOS 2251 DEB",
        "meta_object_id": "1993-036JY",
        "meta_epoch": "2025-12-22T22:31:51.844800",
        "meta_mean_motion": 14.40377344,
        "meta_eccentricity": 0.00208456,
        "meta_inclination": 74.0387,
        "meta_ra_of_asc_node": 244.5373,
        "meta_arg_of_pericenter": 319.9641,
        "meta_mean_anomaly": 51.0533,
        "meta_ephemeris_type": 0,
        "meta_classification_type": "U",
        "meta_norad_cat_id": 34061,
        "meta_element_set_no": 999,
        "meta_rev_at_epoch": 88327,
        "meta_bstar": 0.00027220012,
        "meta_mean_motion_dot": 8.4e-06,
        "meta_mean_motion_ddot": 0,
        "tle_line1": "1 34061U 93036JY  25356.93879450  .00000840  00000+0  27220-3 0  9998",
        "tle_line2": "2 34061  74.0387 244.5373 0020845 319.9641  51.0533 14.40377344883277"
      },
      "geometry": {
        "type": "Point",
        "coordinates": [
          -155.52163888224428,
          -65.63300846548731
        ]
      }
    },
    {
      "type": "Feature",
      "properties": {
        "norad_id": 34062,
        "name": "COSMOS 2251 DEB",
        "group": "cosmos-2251-debris",
        "lat": 73.49959788195724,
        "lon": -167.74985800764279,
        "alt_km": 640.4064224306694,
        "timestamp": "2025-12-23T09:49:07.476633+00:00",
        "meta_object_name": "COSMOS 2251 DEB",
        "meta_object_id": "1993-036JZ",
        "meta_epoch": "2025-12-22T07:34:37.714656",
        "meta_mean_motion": 14.79022786,
        "meta_eccentricity": 0.00732902,
        "meta_inclination": 74.0286,
        "meta_ra_of_asc_node": 119.1976,
        "meta_arg_of_pericenter": 196.3011,
        "meta_mean_anomaly": 190.8906,
        "meta_ephemeris_type": 0,
        "meta_classification_type": "U",
        "meta_norad_cat_id": 34062,
        "meta_element_set_no": 999,
        "meta_rev_at_epoch": 88737,
        "meta_bstar": 0.0030412369,
        "meta_mean_motion_dot": 0.0002357,
        "meta_mean_motion_ddot": 0,
        "tle_line1": "1 34062U 93036JZ  25356.31571429  .00023570  00000+0  30412-2 0  9997",
        "tle_line2": "2 34062  74.0286 119.1976 0073290 196.3011 190.8906 14.79022786887372"
      },
      "geometry": {
        "type": "Point",
        "coordinates": [
          -167.74985800764279,
          73.49959788195724
        ]
      }
    },
    {
      "type": "Feature",
      "properties": {
        "norad_id": 34064,
        "name": "COSMOS 2251 DEB",
        "group": "cosmos-2251-debris",
        "lat": -20.465060177019527,
        "lon": -115.05919903974427,
        "alt_km": 740.8138950829616,
        "timestamp": "2025-12-23T09:49:07.476644+00:00",
        "meta_object_name": "COSMOS 2251 DEB",
        "meta_object_id": "1993-036KB",
        "meta_epoch": "2025-12-22T17:24:50.614848",
        "meta_mean_motion": 14.42369299,
        "meta_eccentricity": 0.00223717,
        "meta_inclination": 74.0319,
        "meta_ra_of_asc_node": 252.3425,
        "meta_arg_of_pericenter": 317.5062,
        "meta_mean_anomaly": 73.3712,
        "meta_ephemeris_type": 0,
        "meta_classification_type": "U",
        "meta_norad_cat_id": 34064,
        "meta_element_set_no": 999,
        "meta_rev_at_epoch": 88286,
        "meta_bstar": 0.00040492533,
        "meta_mean_motion_dot": 1.316e-05,
        "meta_mean_motion_ddot": 0,
        "tle_line1": "1 34064U 93036KB  25356.72558582  .00001316  00000+0  40493-3 0  9994",
        "tle_line2": "2 34064  74.0319 252.3425 0022371 317.5062  73.3712 14.42369299882869"
      },
      "geometry": {
        "type": "Point",
        "coordinates": [
          -115.05919903974427,
          -20.465060177019527
        ]
      }
    },
    {
      "type": "Feature",
      "properties": {
        "norad_id": 34065,
        "name": "COSMOS 2251 DEB",
        "group": "cosmos-2251-debris",
        "lat": -7.109871663989706,
        "lon": 60.51535511808724,
        "alt_km": 778.3928950367035,
        "timestamp": "2025-12-23T09:49:07.476653+00:00",
        "meta_object_name": "COSMOS 2251 DEB",
        "meta_object_id": "1993-036KC",
        "meta_epoch": "2025-12-22T23:02:54.544128",
        "meta_mean_motion": 14.3807309,
        "meta_eccentricity": 0.00167789,
        "meta_inclination": 74.0351,
        "meta_ra_of_asc_node": 239.2954,
        "meta_arg_of_pericenter": 335.0682,
        "meta_mean_anomaly": 49.991,
        "meta_ephemeris_type": 0,
        "meta_classification_type": "U",
        "meta_norad_cat_id": 34065,
        "meta_element_set_no": 999,
        "meta_rev_at_epoch": 88352,
        "meta_bstar": 0.00015096965,
        "meta_mean_motion_dot": 4.32e-06,
        "meta_mean_motion_ddot": 0,
        "tle_line1": "1 34065U 93036KC  25356.96035352  .00000432  00000+0  15097-3 0  9996",
        "tle_line2": "2 34065  74.0351 239.2954 0016778 335.0682  49.9910 14.38073090883523"
      },
      "geometry": {
        "type": "Point",
        "coordinates": [
          60.51535511808724,
          -7.109871663989706
        ]
      }
    }
  ]
}